[{"OBJECT_NAME":"ONEWEB-0635","OBJECT_ID":"2023-043AG","EPOCH":"2025-11-05T00:04:36.637248","MEAN_MOTION":13.15547804,"ECCENTRICITY":0.00015952,"INCLINATION":87.8952,"RA_OF_ASC_NODE":303.9263,"ARG_OF_PERICENTER":94.4995,"MEAN_ANOMALY":265.6318,"EPHEMERIS_TYPE":0,"CLASSIFICATION_TYPE":"U","NORAD_CAT_ID":56076,"ELEMENT_SET_NO":999,"REV_AT_EPOCH":12695,"BSTAR":-1.3154018e-5,"MEAN_MOTION_DOT":8.0e-8,"MEAN_MOTION_DDOT":0},{"OBJECT_NAME":"ONEWEB-0636","OBJECT_ID":"2023-043AH","EPOCH":"2025-11-04T23:53:12.989472","MEAN_MOTION":13.15548526,"ECCENTRICITY":0.00016222,"INCLINATION":87.8952,"RA_OF_ASC_NODE":303.9458,"ARG_OF_PERICENTER":92.8645,"MEAN_ANOMALY":267.2671,"EPHEMERIS_TYPE":0,"CLASSIFICATION_TYPE":"U","NORAD_CAT_ID":56077,"ELEMENT_SET_NO":999,"REV_AT_EPOCH":12693,"BSTAR":8.6637584e-5,"MEAN_MOTION_DOT":4.5e-7,"MEAN_MOTION_DDOT":0},{"OBJECT_NAME":"ONEWEB-0637","OBJECT_ID":"2023-043AJ","EPOCH":"2025-11-04T10:57:25.792128","MEAN_MOTION":13.15547314,"ECCENTRICITY":0.00016186,"INCLINATION":87.8955,"RA_OF_ASC_NODE":304.0684,"ARG_OF_PERICENTER":81.2227,"MEAN_ANOMALY":278.9087,"EPHEMERIS_TYPE":0,"CLASSIFICATION_TYPE":"U","NORAD_CAT_ID":56078,"ELEMENT_SET_NO":999,"REV_AT_EPOCH":12688,"BSTAR":0.00029657381,"MEAN_MOTION_DOT":1.24e-6,"MEAN_MOTION_DDOT":0},{"OBJECT_NAME":"ONEWEB-0647","OBJECT_ID":"2023-043AK","EPOCH":"2025-11-04T18:08:38.628096","MEAN_MOTION":13.15547995,"ECCENTRICITY":0.0001822,"INCLINATION":87.8962,"RA_OF_ASC_NODE":304.0223,"ARG_OF_PERICENTER":94.2662,"MEAN_ANOMALY":265.8676,"EPHEMERIS_TYPE":0,"CLASSIFICATION_TYPE":"U","NORAD_CAT_ID":56079,"ELEMENT_SET_NO":999,"REV_AT_EPOCH":12691,"BSTAR":-0.00019291989,"MEAN_MOTION_DOT":-6.0e-7,"MEAN_MOTION_DDOT":0},{"OBJECT_NAME":"ONEWEB-0651","OBJECT_ID":"2023-043AL","EPOCH":"2025-11-05T06:48:28.687104","MEAN_MOTION":13.15548093,"ECCENTRICITY":0.00016152,"INCLINATION":87.8957,"RA_OF_ASC_NODE":303.9094,"ARG_OF_PERICENTER":89.8013,"MEAN_ANOMALY":270.3303,"EPHEMERIS_TYPE":0,"CLASSIFICATION_TYPE":"U","NORAD_CAT_ID":56080,"ELEMENT_SET_NO":999,"REV_AT_EPOCH":12818,"BSTAR":0.0010342629,"MEAN_MOTION_DOT":4.02e-6,"MEAN_MOTION_DDOT":0},{"OBJECT_NAME":"ONEWEB-0718","OBJECT_ID":"2023-043AM","EPOCH":"2025-11-05T06:41:37.507776","MEAN_MOTION":13.15551077,"ECCENTRICITY":0.00021858,"INCLINATION":87.8958,"RA_OF_ASC_NODE":303.891,"ARG_OF_PERICENTER":76.7375,"MEAN_ANOMALY":283.3999,"EPHEMERIS_TYPE":0,"CLASSIFICATION_TYPE":"U","NORAD_CAT_ID":56081,"ELEMENT_SET_NO":999,"REV_AT_EPOCH":12699,"BSTAR":0.00060737053,"MEAN_MOTION_DOT":2.41e-6,"MEAN_MOTION_DDOT":0},{"OBJECT_NAME":"ONEWEB-0561","OBJECT_ID":"2023-068A","EPOCH":"2025-11-05T06:15:25.687872","MEAN_MOTION":13.20771464,"ECCENTRICITY":0.00016406,"INCLINATION":87.9181,"RA_OF_ASC_NODE":319.1122,"ARG_OF_PERICENTER":106.8847,"MEAN_ANOMALY":253.2466,"EPHEMERIS_TYPE":0,"CLASSIFICATION_TYPE":"U","NORAD_CAT_ID":56710,"ELEMENT_SET_NO":999,"REV_AT_EPOCH":11994,"BSTAR":0.0001237785,"MEAN_MOTION_DOT":6.3e-7,"MEAN_MOTION_DDOT":0},{"OBJECT_NAME":"ONEWEB-0668","OBJECT_ID":"2023-068B","EPOCH":"2025-11-04T09:55:29.703936","MEAN_MOTION":13.18150049,"ECCENTRICITY":0.00020773,"INCLINATION":87.9007,"RA_OF_ASC_NODE":273.5257,"ARG_OF_PERICENTER":69.4245,"MEAN_ANOMALY":290.711,"EPHEMERIS_TYPE":0,"CLASSIFICATION_TYPE":"U","NORAD_CAT_ID":56711,"ELEMENT_SET_NO":999,"REV_AT_EPOCH":12220,"BSTAR":0.00036275108,"MEAN_MOTION_DOT":1.55e-6,"MEAN_MOTION_DDOT":0},{"OBJECT_NAME":"ONEWEB-0676","OBJECT_ID":"2023-068C","EPOCH":"2025-11-05T04:04:30.160128","MEAN_MOTION":13.16594219,"ECCENTRICITY":0.00017879,"INCLINATION":87.8996,"RA_OF_ASC_NODE":273.3956,"ARG_OF_PERICENTER":86.3151,"MEAN_ANOMALY":273.8184,"EPHEMERIS_TYPE":0,"CLASSIFICATION_TYPE":"U","NORAD_CAT_ID":56712,"ELEMENT_SET_NO":999,"REV_AT_EPOCH":12222,"BSTAR":-0.0010176618,"MEAN_MOTION_DOT":-3.76e-6,"MEAN_MOTION_DDOT":0},{"OBJECT_NAME":"ONEWEB-0677","OBJECT_ID":"2023-068D","EPOCH":"2025-11-05T00:32:14.389728","MEAN_MOTION":13.20772785,"ECCENTRICITY":0.0001709,"INCLINATION":87.9191,"RA_OF_ASC_NODE":319.1392,"ARG_OF_PERICENTER":90.9131,"MEAN_ANOMALY":269.2198,"EPHEMERIS_TYPE":0,"CLASSIFICATION_TYPE":"U","NORAD_CAT_ID":56713,"ELEMENT_SET_NO":999,"REV_AT_EPOCH":12021,"BSTAR":4.8670467e-5,"MEAN_MOTION_DOT":3.3e-7,"MEAN_MOTION_DDOT":0},{"OBJECT_NAME":"ONEWEB-0678","OBJECT_ID":"2023-068E","EPOCH":"2025-11-05T00:27:25.608960","MEAN_MOTION":13.15549537,"ECCENTRICITY":0.00020341,"INCLINATION":87.8957,"RA_OF_ASC_NODE":303.9169,"ARG_OF_PERICENTER":98.3026,"MEAN_ANOMALY":261.8335,"EPHEMERIS_TYPE":0,"CLASSIFICATION_TYPE":"U","NORAD_CAT_ID":56714,"ELEMENT_SET_NO":999,"REV_AT_EPOCH":11981,"BSTAR":-0.00035789163,"MEAN_MOTION_DOT":-1.22e-6,"MEAN_MOTION_DDOT":0},{"OBJECT_NAME":"ONEWEB-0679","OBJECT_ID":"2023-068F","EPOCH":"2025-11-05T06:44:18.642048","MEAN_MOTION":13.16594934,"ECCENTRICITY":0.00015082,"INCLINATION":87.8992,"RA_OF_ASC_NODE":273.3594,"ARG_OF_PERICENTER":69.9394,"MEAN_ANOMALY":290.1899,"EPHEMERIS_TYPE":0,"CLASSIFICATION_TYPE":"U","NORAD_CAT_ID":56715,"ELEMENT_SET_NO":999,"REV_AT_EPOCH":12226,"BSTAR":0.00019903612,"MEAN_MOTION_DOT":8.9e-7,"MEAN_MOTION_DDOT":0},{"OBJECT_NAME":"ONEWEB-0680","OBJECT_ID":"2023-068G","EPOCH":"2025-11-04T21:12:49.103424","MEAN_MOTION":13.21825262,"ECCENTRICITY":0.00018768,"INCLINATION":87.9172,"RA_OF_ASC_NODE":288.7066,"ARG_OF_PERICENTER":67.1604,"MEAN_ANOMALY":292.9728,"EPHEMERIS_TYPE":0,"CLASSIFICATION_TYPE":"U","NORAD_CAT_ID":56716,"ELEMENT_SET_NO":999,"REV_AT_EPOCH":12146,"BSTAR":0.00015921177,"MEAN_MOTION_DOT":7.9e-7,"MEAN_MOTION_DDOT":0},{"OBJECT_NAME":"ONEWEB-0681","OBJECT_ID":"2023-068H","EPOCH":"2025-11-05T05:48:14.698656","MEAN_MOTION":13.21826763,"ECCENTRICITY":9.893e-5,"INCLINATION":87.9168,"RA_OF_ASC_NODE":288.6525,"ARG_OF_PERICENTER":111.8493,"MEAN_ANOMALY":248.2746,"EPHEMERIS_TYPE":0,"CLASSIFICATION_TYPE":"U","NORAD_CAT_ID":56717,"ELEMENT_SET_NO":999,"REV_AT_EPOCH":12150,"BSTAR":3.1470608e-5,"MEAN_MOTION_DOT":2.6e-7,"MEAN_MOTION_DDOT":0},{"OBJECT_NAME":"ONEWEB-0682","OBJECT_ID":"2023-068J","EPOCH":"2025-11-05T06:33:39.554208","MEAN_MOTION":13.15548953,"ECCENTRICITY":0.00017756,"INCLINATION":87.8954,"RA_OF_ASC_NODE":303.883,"ARG_OF_PERICENTER":74.4683,"MEAN_ANOMALY":285.6643,"EPHEMERIS_TYPE":0,"CLASSIFICATION_TYPE":"U","NORAD_CAT_ID":56718,"ELEMENT_SET_NO":999,"REV_AT_EPOCH":12001,"BSTAR":0.00045887454,"MEAN_MOTION_DOT":1.86e-6,"MEAN_MOTION_DDOT":0},{"OBJECT_NAME":"ONEWEB-0683","OBJECT_ID":"2023-068K","EPOCH":"2025-11-04T16:28:16.701024","MEAN_MOTION":13.15549588,"ECCENTRICITY":0.00018472,"INCLINATION":87.8959,"RA_OF_ASC_NODE":303.981,"ARG_OF_PERICENTER":80.5224,"MEAN_ANOMALY":279.6115,"EPHEMERIS_TYPE":0,"CLASSIFICATION_TYPE":"U","NORAD_CAT_ID":56719,"ELEMENT_SET_NO":999,"REV_AT_EPOCH":11990,"BSTAR":0.00036238919,"MEAN_MOTION_DOT":1.49e-6,"MEAN_MOTION_DDOT":0}]
