ONEWEB-0635             
1 56076U 23043AG  25309.00320182  .00000008  00000+0 -13154-4 0  9997
2 56076  87.8952 303.9263 0001595  94.4995 265.6318 13.15547804126953
ONEWEB-0636             
1 56077U 23043AH  25308.99528923  .00000045  00000+0  86638-4 0  9995
2 56077  87.8952 303.9458 0001622  92.8645 267.2671 13.15548526126935
ONEWEB-0637             
1 56078U 23043AJ  25308.45654852  .00000124  00000+0  29657-3 0  9993
2 56078  87.8955 304.0684 0001618  81.2227 278.9087 13.15547314126883
ONEWEB-0647             
1 56079U 23043AK  25308.75600264 -.00000060  00000+0 -19292-3 0  9990
2 56079  87.8962 304.0223 0001822  94.2662 265.8676 13.15547995126913
ONEWEB-0651             
1 56080U 23043AL  25309.28366536  .00000402  00000+0  10343-2 0  9997
2 56080  87.8957 303.9094 0001615  89.8013 270.3303 13.15548093128182
ONEWEB-0718             
1 56081U 23043AM  25309.27890634  .00000241  00000+0  60737-3 0  9992
2 56081  87.8958 303.8910 0002185  76.7375 283.3999 13.15551077126997
ONEWEB-0561             
1 56710U 23068A   25309.26071398  .00000063  00000+0  12378-3 0  9995
2 56710  87.9181 319.1122 0001640 106.8847 253.2466 13.20771464119946
ONEWEB-0668             
1 56711U 23068B   25308.41353824  .00000155  00000+0  36275-3 0  9993
2 56711  87.9007 273.5257 0002077  69.4245 290.7110 13.18150049122209
ONEWEB-0676             
1 56712U 23068C   25309.16979352 -.00000376  00000+0 -10177-2 0  9996
2 56712  87.8996 273.3956 0001787  86.3151 273.8184 13.16594219122225
ONEWEB-0677             
1 56713U 23068D   25309.02238877  .00000033  00000+0  48670-4 0  9991
2 56713  87.9191 319.1392 0001709  90.9131 269.2198 13.20772785120212
ONEWEB-0678             
1 56714U 23068E   25309.01904640 -.00000122  00000+0 -35789-3 0  9996
2 56714  87.8957 303.9169 0002034  98.3026 261.8335 13.15549537119818
ONEWEB-0679             
1 56715U 23068F   25309.28077132  .00000089  00000+0  19904-3 0  9994
2 56715  87.8992 273.3594 0001508  69.9394 290.1899 13.16594934122262
ONEWEB-0680             
1 56716U 23068G   25308.88390166  .00000079  00000+0  15921-3 0  9999
2 56716  87.9172 288.7066 0001876  67.1604 292.9728 13.21825262121469
ONEWEB-0681             
1 56717U 23068H   25309.24183679  .00000026  00000+0  31471-4 0  9991
2 56717  87.9168 288.6525 0000989 111.8493 248.2746 13.21826763121507
ONEWEB-0682             
1 56718U 23068J   25309.27337447  .00000186  00000+0  45887-3 0  9991
2 56718  87.8954 303.8830 0001775  74.4683 285.6643 13.15548953120019
ONEWEB-0683             
1 56719U 23068K   25308.68630441  .00000149  00000+0  36239-3 0  9996
2 56719  87.8959 303.9810 0001847  80.5224 279.6115 13.15549588119901
